NORAD_CAT_ID,OBJECT_NAME,OBJECT_TYPE,EPOCH,MEAN_MOTION,ECCENTRICITY,INCLINATION,RA_OF_ASC_NODE,ARG_OF_PERICENTER,MEAN_ANOMALY,BSTAR,MEAN_MOTION_DOT,MEAN_MOTION_DDOT,TLE_LINE0,TLE_LINE1,TLE_LINE2,SEMIMAJOR_AXIS,PERIOD,APOGEE,PERIGEE,DECAYED
53427.0,STARLINK-4541,PAYLOAD,2023-02-01 13:15:54,15.08840697,0.0001222,53.216,156.489,84.6632,275.45,3.7407e-05,3.08e-06,0.0,0 STARLINK-4541,1 53427U 22097AR  23032.55271872  .00000308  00000-0  37407-4 0  9994,2 53427  53.2160 156.4890 0001222  84.6632 275.4500 15.08840697 27739,6917.878,95.438,540.589,538.898,0.0
53427.0,STARLINK-4541,PAYLOAD,2023-02-02 13:06:42,15.08802713,0.0001113,53.2172,152.0277,117.7401,242.3704,0.00051513,7.912e-05,0.0,0 STARLINK-4541,1 53427U 22097AR  23033.54633007  .00007912  00000-0  51513-3 0  9997,2 53427  53.2172 152.0277 0001113 117.7401 242.3704 15.08802713 27886,6917.994,95.44,540.629,539.089,0.0
53427.0,STARLINK-4541,PAYLOAD,2023-02-02 17:52:53,15.08814844,0.0001303,53.2173,151.1354,108.8255,251.2879,-0.00018031,-3.154e-05,0.0,0 STARLINK-4541,1 53427U 22097AR  23033.74506248 -.00003154  00000-0 -18031-3 0  9999,2 53427  53.2173 151.1354 0001303 108.8255 251.2879 15.08814844 27433,6917.957,95.439,540.724,538.921,0.0
53427.0,STARLINK-4541,PAYLOAD,2023-02-03 06:35:58,15.08817968,9.23e-05,53.2171,148.7568,117.4979,242.6107,-0.00012285,-2.241e-05,0.0,0 STARLINK-4541,1 53427U 22097AR  23034.27498404 -.00002241  00000-0 -12285-3 0  9993,2 53427  53.2171 148.7568 0000923 117.4979 242.6107 15.08817968 27513,6917.948,95.439,540.451,539.174,0.0
53427.0,STARLINK-4541,PAYLOAD,2023-02-03 17:43:39,15.0883299,0.0001655,53.2171,146.6757,94.9102,265.2079,8.2933e-06,-1.56e-06,0.0,0 STARLINK-4541,1 53427U 22097AR  23034.73865544 -.00000156  00000-0  82933-5 0  9998,2 53427  53.2171 146.6757 0001655  94.9102 265.2079 15.08832990 27588,6917.902,95.438,540.912,538.622,0.0
53427.0,STARLINK-4541,PAYLOAD,2023-02-04 08:02:06,15.08851786,7.59e-05,53.2154,143.9983,82.2468,277.8611,0.00017065,2.43e-05,0.0,0 STARLINK-4541,1 53427U 22097AR  23035.33479588  .00002430  00000-0  17065-3 0  9992,2 53427  53.2154 143.9983 0000759  82.2468 277.8611 15.08851786 27674,6917.844,95.437,540.234,539.184,0.0
53427.0,STARLINK-4541,PAYLOAD,2023-02-04 14:23:37,15.08865514,0.0001193,53.2175,142.8101,99.0212,261.0915,0.00026903,3.999e-05,0.0,0 STARLINK-4541,1 53427U 22097AR  23035.59974250  .00003999  00000-0  26903-3 0  9998,2 53427  53.2175 142.8101 0001193  99.0212 261.0915 15.08865514 27714,6917.802,95.436,540.493,538.842,0.0
53427.0,STARLINK-4541,PAYLOAD,2023-02-04 17:34:23,15.08870028,0.0001121,53.2167,142.2139,100.0957,260.0162,0.00029013,4.336e-05,0.0,0 STARLINK-4541,1 53427U 22097AR  23035.73221686  .00004336  00000-0  29013-3 0  9993,2 53427  53.2167 142.2139 0001121 100.0957 260.0162 15.08870028 28215,6917.789,95.436,540.429,538.878,0.0
53427.0,STARLINK-4541,PAYLOAD,2023-02-05 06:17:32,15.0881979,9.78e-05,53.2175,139.8364,89.615,270.4954,7.009e-05,8.27e-06,0.0,0 STARLINK-4541,1 53427U 22097AR  23036.26217868  .00000827  00000-0  70090-4 0  9992,2 53427  53.2175 139.8364 0000978  89.6150 270.4954 15.08819790 27810,6917.942,95.439,540.484,539.131,0.0
53427.0,STARLINK-4541,PAYLOAD,2023-02-05 14:14:27,15.08837949,0.0001177,53.2175,138.3495,83.9591,276.1535,-2.0237e-05,-6.1e-06,0.0,0 STARLINK-4541,1 53427U 22097AR  23036.59337392 -.00000610  00000-0 -20237-4 0  9993,2 53427  53.2175 138.3495 0001177  83.9591 276.1535 15.08837949 27866,6917.887,95.438,540.566,538.937,0.0
53427.0,STARLINK-4541,PAYLOAD,2023-02-05 15:49:50,15.08841894,7.14e-05,53.2179,138.0515,76.4655,283.6416,-5.562e-05,-1.173e-05,0.0,0 STARLINK-4541,1 53427U 22097AR  23036.65961107 -.00001173  00000-0 -55620-4 0  9996,2 53427  53.2179 138.0515 0000714  76.4655 283.6416 15.08841894 28354,6917.875,95.437,540.234,539.246,0.0
53427.0,STARLINK-4541,PAYLOAD,2023-02-06 10:54:27,15.08847909,0.0001606,53.2176,134.4848,85.1587,274.9589,-1.6695e-05,-5.54e-06,0.0,0 STARLINK-4541,1 53427U 22097AR  23037.45448294 -.00000554  00000-0 -16695-4 0  9993,2 53427  53.2176 134.4848 0001606  85.1587 274.9589 15.08847909 27998,6917.856,95.437,540.832,538.61,0.0
53427.0,STARLINK-4541,PAYLOAD,2023-02-06 12:29:50,15.08851883,0.0001581,53.2163,134.1859,87.294,272.8233,-1.6981e-05,-5.58e-06,0.0,0 STARLINK-4541,1 53427U 22097AR  23037.52072064 -.00000558  00000-0 -16981-4 0  9991,2 53427  53.2163 134.1859 0001581  87.2940 272.8233 15.08851883 28485,6917.844,95.437,540.803,538.615,0.0
53427.0,STARLINK-4541,PAYLOAD,2023-02-06 14:05:13,15.08854897,0.0001637,53.2173,133.8899,84.8156,275.3023,4.857e-05,4.85e-06,0.0,0 STARLINK-4541,1 53427U 22097AR  23037.58695920  .00000485  00000-0  48570-4 0  9995,2 53427  53.2173 133.8899 0001637  84.8156 275.3023 15.08854897 28494,6917.835,95.437,540.832,538.567,0.0
53427.0,STARLINK-4541,PAYLOAD,2023-02-07 05:59:05,15.08844741,0.0001901,53.2167,130.9163,84.8921,275.2288,0.00032022,4.813e-05,0.0,0 STARLINK-4541,1 53427U 22097AR  23038.24936642  .00004813  00000-0  32022-3 0  9991,2 53427  53.2167 130.9163 0001901  84.8921 275.2288 15.08844741 28111,6917.866,95.437,541.046,538.416,0.0
53427.0,STARLINK-4541,PAYLOAD,2023-02-07 12:20:37,15.08850289,0.0001922,53.2161,129.7287,79.2284,280.8925,0.0003875,5.886e-05,0.0,0 STARLINK-4541,1 53427U 22097AR  23038.51432366  .00005886  00000-0  38750-3 0  9990,2 53427  53.2161 129.7287 0001922  79.2284 280.8925 15.08850289 28632,6917.849,95.437,541.044,538.384,0.0
53427.0,STARLINK-4541,PAYLOAD,2023-02-08 05:49:52,15.08836834,0.0001781,53.2149,126.4555,90.6273,269.4923,-3.3421e-05,-8.2e-06,0.0,0 STARLINK-4541,1 53427U 22097AR  23039.24296782 -.00000820  00000-0 -33421-4 0  9997,2 53427  53.2149 126.4555 0001781  90.6273 269.4923 15.08836834 28268,6917.89,95.438,540.987,538.523,0.0
53427.0,STARLINK-4541,PAYLOAD,2023-02-08 12:11:24,15.08839622,0.000144,53.2161,125.2655,98.0733,262.0422,-1.1652e-05,-4.73e-06,0.0,0 STARLINK-4541,1 53427U 22097AR  23039.50792766 -.00000473  00000-0 -11652-4 0  9995,2 53427  53.2161 125.2655 0001440  98.0733 262.0422 15.08839622 28783,6917.882,95.438,540.743,538.75,0.0
53427.0,STARLINK-4541,PAYLOAD,2023-02-09 10:26:49,15.08843426,0.0001454,53.2159,121.1033,90.9081,269.2077,0.00024877,3.674e-05,0.0,0 STARLINK-4541,1 53427U 22097AR  23040.43528967  .00003674  00000-0  24877-3 0  9995,2 53427  53.2159 121.1033 0001454  90.9081 269.2077 15.08843426 28925,6917.87,95.437,540.741,538.729,0.0
53427.0,STARLINK-4541,PAYLOAD,2023-02-09 12:02:12,15.08846062,0.0001464,53.2162,120.805,94.9585,265.1575,0.00042327,6.456e-05,0.0,0 STARLINK-4541,1 53427U 22097AR  23040.50152931  .00006456  00000-0  42327-3 0  9998,2 53427  53.2162 120.8050 0001464  94.9585 265.1575 15.08846062 28453,6917.862,95.437,540.74,538.714,0.0
53427.0,STARLINK-4541,PAYLOAD,2023-02-10 11:52:59,15.0885228,0.0001424,53.2162,116.3455,105.0412,255.0737,0.0004347,6.639e-05,0.0,0 STARLINK-4541,1 53427U 22097AR  23041.49512867  .00006639  00000-0  43470-3 0  9998,2 53427  53.2162 116.3455 0001424 105.0412 255.0737 15.08852280 28605,6917.843,95.437,540.693,538.723,0.0
53427.0,STARLINK-4541,PAYLOAD,2023-02-10 21:25:18,15.08841591,0.0001194,53.216,114.5609,93.8116,266.3013,0.000134,1.845e-05,0.0,0 STARLINK-4541,1 53427U 22097AR  23041.89257195  .00001845  00000-0  13400-3 0  9996,2 53427  53.2160 114.5609 0001194  93.8116 266.3013 15.08841591 29148,6917.876,95.437,540.567,538.915,0.0
53427.0,STARLINK-4541,PAYLOAD,2023-02-11 21:16:05,15.08846224,0.000127,53.2171,110.1043,98.0651,262.0486,0.00021227,3.093e-05,0.0,0 STARLINK-4541,1 53427U 22097AR  23042.88617192  .00003093  00000-0  21227-3 0  9996,2 53427  53.2171 110.1043 0001270  98.0651 262.0486 15.08846224 29291,6917.861,95.437,540.605,538.848,0.0
53427.0,STARLINK-4541,PAYLOAD,2023-02-12 06:48:24,15.08840647,0.000125,53.2179,108.3191,100.8295,259.2838,6.3914e-05,7.29e-06,0.0,0 STARLINK-4541,1 53427U 22097AR  23043.28361495  .00000729  00000-0  63914-4 0  9996,2 53427  53.2179 108.3191 0001250 100.8295 259.2838 15.08840647 28871,6917.878,95.438,540.608,538.879,0.0
53427.0,STARLINK-4541,PAYLOAD,2023-02-12 13:09:56,15.08855727,0.0001206,53.2161,107.1256,120.2519,239.8593,0.00035162,5.315e-05,0.0,0 STARLINK-4541,1 53427U 22097AR  23043.54856595  .00005315  00000-0  35162-3 0  9994,2 53427  53.2161 107.1256 0001206 120.2519 239.8593 15.08855727 28919,6917.832,95.437,540.532,538.863,0.0
53427.0,STARLINK-4541,PAYLOAD,2023-02-12 21:06:52,15.08841239,9.76e-05,53.2156,105.639,132.1603,227.9472,8.2505e-05,1.026e-05,0.0,0 STARLINK-4541,1 53427U 22097AR  23043.87977121  .00001026  00000-0  82505-4 0  9998,2 53427  53.2156 105.6390 0000976 132.1603 227.9472 15.08841239 28966,6917.877,95.437,540.417,539.066,0.0
53427.0,STARLINK-4541,PAYLOAD,2023-02-13 11:25:20,15.08850781,0.0001253,53.2153,102.963,98.8373,261.2761,0.00038495,5.846e-05,0.0,0 STARLINK-4541,1 53427U 22097AR  23044.47593116  .00005846  00000-0  38495-3 0  9995,2 53427  53.2153 102.9630 0001253  98.8373 261.2761 15.08850781 29539,6917.847,95.437,540.579,538.846,0.0
53427.0,STARLINK-4541,PAYLOAD,2023-02-14 03:19:12,15.08845532,0.0001495,53.2158,99.9903,83.9119,276.2044,0.00029776,4.455e-05,0.0,0 STARLINK-4541,1 53427U 22097AR  23045.13833404  .00004455  00000-0  29776-3 0  9993,2 53427  53.2158  99.9903 0001495  83.9119 276.2044 15.08845532 29159,6917.863,95.437,540.763,538.694,0.0
53427.0,STARLINK-4541,PAYLOAD,2023-02-14 11:16:07,15.08850879,0.0001191,53.2158,98.5021,97.9288,262.1839,0.00026405,3.918e-05,0.0,0 STARLINK-4541,1 53427U 22097AR  23045.46953053  .00003918  00000-0  26405-3 0  9991,2 53427  53.2158  98.5021 0001191  97.9288 262.1839 15.08850879 29684,6917.847,95.437,540.536,538.888,0.0
53427.0,STARLINK-4541,PAYLOAD,2023-02-15 06:20:45,15.08837106,0.0001265,53.2161,94.9336,106.1122,254.001,9.0308e-05,1.15e-05,0.0,0 STARLINK-4541,1 53427U 22097AR  23046.26441605  .00001150  00000-0  90308-4 0  9995,2 53427  53.2161  94.9336 0001265 106.1122 254.0010 15.08837106 29329,6917.889,95.438,540.629,538.879,0.0
